[{"OBJECT_NAME":"ISS OBJECT XT","OBJECT_ID":"1998-067XT","EPOCH":"2026-04-19T13:24:47.454912","MEAN_MOTION":15.88963868,"ECCENTRICITY":0.00114724,"INCLINATION":51.62,"RA_OF_ASC_NODE":214.4723,"ARG_OF_PERICENTER":333.2606,"MEAN_ANOMALY":26.7806,"EPHEMERIS_TYPE":0,"CLASSIFICATION_TYPE":"U","NORAD_CAT_ID":66907,"ELEMENT_SET_NO":999,"REV_AT_EPOCH":2163,"BSTAR":0.0014284881,"MEAN_MOTION_DOT":0.00415498,"MEAN_MOTION_DDOT":7.4749355e-5},{"OBJECT_NAME":"ISS OBJECT XU","OBJECT_ID":"1998-067XU","EPOCH":"2026-04-19T11:40:46.425216","MEAN_MOTION":15.89422041,"ECCENTRICITY":0.00109467,"INCLINATION":51.6195,"RA_OF_ASC_NODE":214.7306,"ARG_OF_PERICENTER":330.0914,"MEAN_ANOMALY":29.9465,"EPHEMERIS_TYPE":0,"CLASSIFICATION_TYPE":"U","NORAD_CAT_ID":66908,"ELEMENT_SET_NO":999,"REV_AT_EPOCH":2162,"BSTAR":0.0013928452,"MEAN_MOTION_DOT":0.00414385,"MEAN_MOTION_DDOT":7.4760083e-5},{"OBJECT_NAME":"SILVERSAT","OBJECT_ID":"1998-067XV","EPOCH":"2026-04-19T13:21:20.041344","MEAN_MOTION":16.0849275,"ECCENTRICITY":0.00138421,"INCLINATION":51.6112,"RA_OF_ASC_NODE":211.3814,"ARG_OF_PERICENTER":336.0971,"MEAN_ANOMALY":23.9398,"EPHEMERIS_TYPE":0,"CLASSIFICATION_TYPE":"U","NORAD_CAT_ID":66909,"ELEMENT_SET_NO":999,"REV_AT_EPOCH":2167,"BSTAR":0.0017688526,"MEAN_MOTION_DOT":0.01539318,"MEAN_MOTION_DDOT":0.0016207157},{"OBJECT_NAME":"ISS OBJECT XW","OBJECT_ID":"1998-067XW","EPOCH":"2026-04-19T11:23:27.791808","MEAN_MOTION":15.84996751,"ECCENTRICITY":0.0010632,"INCLINATION":51.6189,"RA_OF_ASC_NODE":215.406,"ARG_OF_PERICENTER":327.7961,"MEAN_ANOMALY":32.2392,"EPHEMERIS_TYPE":0,"CLASSIFICATION_TYPE":"U","NORAD_CAT_ID":66910,"ELEMENT_SET_NO":999,"REV_AT_EPOCH":2161,"BSTAR":0.0012783419,"MEAN_MOTION_DOT":0.00318697,"MEAN_MOTION_DDOT":0},{"OBJECT_NAME":"ISS OBJECT XY","OBJECT_ID":"1998-067XY","EPOCH":"2026-04-19T13:24:39.328128","MEAN_MOTION":15.72676616,"ECCENTRICITY":0.0007192,"INCLINATION":51.6241,"RA_OF_ASC_NODE":219.0343,"ARG_OF_PERICENTER":324.2822,"MEAN_ANOMALY":35.7695,"EPHEMERIS_TYPE":0,"CLASSIFICATION_TYPE":"U","NORAD_CAT_ID":66912,"ELEMENT_SET_NO":999,"REV_AT_EPOCH":2156,"BSTAR":0.00095324,"MEAN_MOTION_DOT":0.00132686,"MEAN_MOTION_DDOT":0},{"OBJECT_NAME":"KNACKSAT-2","OBJECT_ID":"1998-067XZ","EPOCH":"2026-04-19T13:46:53.745024","MEAN_MOTION":15.55149881,"ECCENTRICITY":0.0011885,"INCLINATION":51.6307,"RA_OF_ASC_NODE":228.1722,"ARG_OF_PERICENTER":340.4286,"MEAN_ANOMALY":19.6247,"EPHEMERIS_TYPE":0,"CLASSIFICATION_TYPE":"U","NORAD_CAT_ID":67683,"ELEMENT_SET_NO":999,"REV_AT_EPOCH":1114,"BSTAR":0.00056864,"MEAN_MOTION_DOT":0.00038891,"MEAN_MOTION_DDOT":0},{"OBJECT_NAME":"CORAL","OBJECT_ID":"1998-067YA","EPOCH":"2026-04-19T13:26:11.809824","MEAN_MOTION":15.61515139,"ECCENTRICITY":0.0015604,"INCLINATION":51.6282,"RA_OF_ASC_NODE":226.5714,"ARG_OF_PERICENTER":332.893,"MEAN_ANOMALY":27.1247,"EPHEMERIS_TYPE":0,"CLASSIFICATION_TYPE":"U","NORAD_CAT_ID":67684,"ELEMENT_SET_NO":999,"REV_AT_EPOCH":1116,"BSTAR":0.0011041,"MEAN_MOTION_DOT":0.00097656,"MEAN_MOTION_DDOT":0},{"OBJECT_NAME":"GXIBA-1","OBJECT_ID":"1998-067YB","EPOCH":"2026-04-19T14:51:34.377696","MEAN_MOTION":15.55920446,"ECCENTRICITY":0.0013747,"INCLINATION":51.6296,"RA_OF_ASC_NODE":227.7212,"ARG_OF_PERICENTER":337.6554,"MEAN_ANOMALY":22.3836,"EPHEMERIS_TYPE":0,"CLASSIFICATION_TYPE":"U","NORAD_CAT_ID":67685,"ELEMENT_SET_NO":999,"REV_AT_EPOCH":1115,"BSTAR":0.00064537,"MEAN_MOTION_DOT":0.00045577,"MEAN_MOTION_DDOT":0},{"OBJECT_NAME":"UITMSAT-2","OBJECT_ID":"1998-067YC","EPOCH":"2026-04-19T14:05:43.266048","MEAN_MOTION":15.57380005,"ECCENTRICITY":0.0010741,"INCLINATION":51.6299,"RA_OF_ASC_NODE":227.5092,"ARG_OF_PERICENTER":317.3857,"MEAN_ANOMALY":42.6301,"EPHEMERIS_TYPE":0,"CLASSIFICATION_TYPE":"U","NORAD_CAT_ID":67686,"ELEMENT_SET_NO":999,"REV_AT_EPOCH":1115,"BSTAR":0.00077571,"MEAN_MOTION_DOT":0.00057964,"MEAN_MOTION_DDOT":0},{"OBJECT_NAME":"HMU-SAT2","OBJECT_ID":"1998-067YD","EPOCH":"2026-04-19T13:32:00.405312","MEAN_MOTION":15.55590545,"ECCENTRICITY":0.0009979,"INCLINATION":51.6312,"RA_OF_ASC_NODE":228.1059,"ARG_OF_PERICENTER":318.5254,"MEAN_ANOMALY":41.4979,"EPHEMERIS_TYPE":0,"CLASSIFICATION_TYPE":"U","NORAD_CAT_ID":67687,"ELEMENT_SET_NO":999,"REV_AT_EPOCH":1106,"BSTAR":0.00060814,"MEAN_MOTION_DOT":0.00042296,"MEAN_MOTION_DDOT":0},{"OBJECT_NAME":"LEOPARD","OBJECT_ID":"1998-067YE","EPOCH":"2026-04-19T14:26:37.044960","MEAN_MOTION":15.56718917,"ECCENTRICITY":0.0010319,"INCLINATION":51.6313,"RA_OF_ASC_NODE":227.609,"ARG_OF_PERICENTER":317.4453,"MEAN_ANOMALY":42.5738,"EPHEMERIS_TYPE":0,"CLASSIFICATION_TYPE":"U","NORAD_CAT_ID":67688,"ELEMENT_SET_NO":999,"REV_AT_EPOCH":1107,"BSTAR":0.00073319,"MEAN_MOTION_DOT":0.00053374,"MEAN_MOTION_DDOT":0},{"OBJECT_NAME":"CREW DRAGON 12","OBJECT_ID":"2026-031A","EPOCH":"2026-04-19T19:30:06.392736","MEAN_MOTION":15.48838577,"ECCENTRICITY":0.0006646,"INCLINATION":51.6328,"RA_OF_ASC_NODE":229.0112,"ARG_OF_PERICENTER":327.0839,"MEAN_ANOMALY":32.9735,"EPHEMERIS_TYPE":0,"CLASSIFICATION_TYPE":"U","NORAD_CAT_ID":67796,"ELEMENT_SET_NO":999,"REV_AT_EPOCH":56278,"BSTAR":0.0001834,"MEAN_MOTION_DOT":9.614e-5,"MEAN_MOTION_DDOT":0},{"OBJECT_NAME":"PROGRESS-MS 33","OBJECT_ID":"2026-058A","EPOCH":"2026-04-19T11:45:32.833440","MEAN_MOTION":15.4883325,"ECCENTRICITY":0.00066312,"INCLINATION":51.6329,"RA_OF_ASC_NODE":230.6068,"ARG_OF_PERICENTER":325.6576,"MEAN_ANOMALY":34.3983,"EPHEMERIS_TYPE":0,"CLASSIFICATION_TYPE":"U","NORAD_CAT_ID":68319,"ELEMENT_SET_NO":999,"REV_AT_EPOCH":316,"BSTAR":0.00019193879,"MEAN_MOTION_DOT":0.00010082,"MEAN_MOTION_DDOT":0},{"OBJECT_NAME":"CYGNUS NG-24","OBJECT_ID":"2026-079A","EPOCH":"2026-04-19T11:45:32.833440","MEAN_MOTION":15.4883325,"ECCENTRICITY":0.00066312,"INCLINATION":51.6329,"RA_OF_ASC_NODE":230.6068,"ARG_OF_PERICENTER":325.6576,"MEAN_ANOMALY":34.3983,"EPHEMERIS_TYPE":0,"CLASSIFICATION_TYPE":"U","NORAD_CAT_ID":68689,"ELEMENT_SET_NO":999,"REV_AT_EPOCH":121,"BSTAR":0.00019193879,"MEAN_MOTION_DOT":0.00010082,"MEAN_MOTION_DDOT":0}]
