ISS OBJECT XT
1 66907U 98067XT  26109.55888258  .00415498  74749-4  14285-2 0  9993
2 66907  51.6200 214.4723 0011472 333.2606  26.7806 15.88963868 21638
ISS OBJECT XU
1 66908U 98067XU  26109.48664844  .00414385  74760-4  13928-2 0  9999
2 66908  51.6195 214.7306 0010946 330.0914  29.9465 15.89422041 21623
SILVERSAT
1 66909U 98067XV  26109.55648196  .01539318  16207-2  17689-2 0  9993
2 66909  51.6112 211.3814 0013842 336.0971  23.9398 16.08492750 21677
ISS OBJECT XW
1 66910U 98067XW  26109.47462722  .00318697  00000+0  12783-2 0  9990
2 66910  51.6189 215.4060 0010632 327.7961  32.2392 15.84996751 21615
ISS OBJECT XY
1 66912U 98067XY  26109.55878852  .00132686  00000+0  95324-3 0  9991
2 66912  51.6241 219.0343 0007192 324.2822  35.7695 15.72676616 21565
KNACKSAT-2
1 67683U 98067XZ  26109.57423316  .00038891  00000+0  56864-3 0  9999
2 67683  51.6307 228.1722 0011885 340.4286  19.6247 15.55149881 11141
CORAL
1 67684U 98067YA  26109.55985891  .00097656  00000+0  11041-2 0  9990
2 67684  51.6282 226.5714 0015604 332.8930  27.1247 15.61515139 11167
GXIBA-1
1 67685U 98067YB  26109.61914789  .00045577  00000+0  64537-3 0  9990
2 67685  51.6296 227.7212 0013747 337.6554  22.3836 15.55920446 11154
UITMSAT-2
1 67686U 98067YC  26109.58730632  .00057964  00000+0  77571-3 0  9995
2 67686  51.6299 227.5092 0010741 317.3857  42.6301 15.57380005 11159
HMU-SAT2
1 67687U 98067YD  26109.56389358  .00042296  00000+0  60814-3 0  9993
2 67687  51.6312 228.1059 0009979 318.5254  41.4979 15.55590545 11069
LEOPARD
1 67688U 98067YE  26109.60181765  .00053374  00000+0  73319-3 0  9994
2 67688  51.6313 227.6090 0010319 317.4453  42.5738 15.56718917 11071
CREW DRAGON 12
1 67796U 26031A   26109.81257399  .00009614  00000+0  18340-3 0  9997
2 67796  51.6328 229.0112 0006646 327.0839  32.9735 15.48838577562786
PROGRESS-MS 33
1 68319U 26058A   26109.48996335  .00010082  00000+0  19194-3 0  9990
2 68319  51.6329 230.6068 0006631 325.6576  34.3983 15.48833250  3169
CYGNUS NG-24
1 68689U 26079A   26109.48996335  .00010082  00000+0  19194-3 0  9993
2 68689  51.6329 230.6068 0006631 325.6576  34.3983 15.48833250  1213
